<?xml version="1.0" encoding="UTF-8"?>
<gpx version="1.1" creator="PhysicalOS import_kitti" xmlns="http://www.topografix.com/GPX/1/1">
  <trk>
    <name>KITTI raw drive</name>
    <trkseg>
      <trkpt lat="49.01446931" lon="8.43239545"><time>2011-09-26T13:02:44.335Z</time></trkpt>
      <trkpt lat="49.01446820" lon="8.43238369"><time>2011-09-26T13:02:44.435Z</time></trkpt>
      <trkpt lat="49.01446696" lon="8.43237065"><time>2011-09-26T13:02:44.545Z</time></trkpt>
      <trkpt lat="49.01446583" lon="8.43235875"><time>2011-09-26T13:02:44.645Z</time></trkpt>
      <trkpt lat="49.01446475" lon="8.43234681"><time>2011-09-26T13:02:44.745Z</time></trkpt>
      <trkpt lat="49.01446360" lon="8.43233366"><time>2011-09-26T13:02:44.855Z</time></trkpt>
      <trkpt lat="49.01446251" lon="8.43232169"><time>2011-09-26T13:02:44.955Z</time></trkpt>
      <trkpt lat="49.01446145" lon="8.43230964"><time>2011-09-26T13:02:45.055Z</time></trkpt>
      <trkpt lat="49.01446028" lon="8.43229635"><time>2011-09-26T13:02:45.165Z</time></trkpt>
      <trkpt lat="49.01445915" lon="8.43228421"><time>2011-09-26T13:02:45.265Z</time></trkpt>
      <trkpt lat="49.01445800" lon="8.43227203"><time>2011-09-26T13:02:45.365Z</time></trkpt>
      <trkpt lat="49.01445684" lon="8.43225981"><time>2011-09-26T13:02:45.465Z</time></trkpt>
      <trkpt lat="49.01445547" lon="8.43224636"><time>2011-09-26T13:02:45.575Z</time></trkpt>
      <trkpt lat="49.01445421" lon="8.43223411"><time>2011-09-26T13:02:45.675Z</time></trkpt>
      <trkpt lat="49.01445287" lon="8.43222185"><time>2011-09-26T13:02:45.775Z</time></trkpt>
      <trkpt lat="49.01445131" lon="8.43220835"><time>2011-09-26T13:02:45.885Z</time></trkpt>
      <trkpt lat="49.01444980" lon="8.43219607"><time>2011-09-26T13:02:45.985Z</time></trkpt>
      <trkpt lat="49.01444820" lon="8.43218376"><time>2011-09-26T13:02:46.085Z</time></trkpt>
      <trkpt lat="49.01444651" lon="8.43217142"><time>2011-09-26T13:02:46.185Z</time></trkpt>
      <trkpt lat="49.01444457" lon="8.43215784"><time>2011-09-26T13:02:46.295Z</time></trkpt>
      <trkpt lat="49.01444274" lon="8.43214547"><time>2011-09-26T13:02:46.395Z</time></trkpt>
      <trkpt lat="49.01444083" lon="8.43213307"><time>2011-09-26T13:02:46.495Z</time></trkpt>
      <trkpt lat="49.01443865" lon="8.43211939"><time>2011-09-26T13:02:46.605Z</time></trkpt>
      <trkpt lat="49.01443663" lon="8.43210691"><time>2011-09-26T13:02:46.705Z</time></trkpt>
      <trkpt lat="49.01443453" lon="8.43209436"><time>2011-09-26T13:02:46.805Z</time></trkpt>
      <trkpt lat="49.01443212" lon="8.43208049"><time>2011-09-26T13:02:46.915Z</time></trkpt>
      <trkpt lat="49.01442982" lon="8.43206786"><time>2011-09-26T13:02:47.015Z</time></trkpt>
      <trkpt lat="49.01442725" lon="8.43205388"><time>2011-09-26T13:02:47.125Z</time></trkpt>
      <trkpt lat="49.01442482" lon="8.43204114"><time>2011-09-26T13:02:47.225Z</time></trkpt>
      <trkpt lat="49.01442233" lon="8.43202836"><time>2011-09-26T13:02:47.325Z</time></trkpt>
      <trkpt lat="49.01441951" lon="8.43201424"><time>2011-09-26T13:02:47.435Z</time></trkpt>
      <trkpt lat="49.01441688" lon="8.43200136"><time>2011-09-26T13:02:47.535Z</time></trkpt>
      <trkpt lat="49.01441419" lon="8.43198842"><time>2011-09-26T13:02:47.635Z</time></trkpt>
      <trkpt lat="49.01441114" lon="8.43197413"><time>2011-09-26T13:02:47.745Z</time></trkpt>
      <trkpt lat="49.01440827" lon="8.43196109"><time>2011-09-26T13:02:47.845Z</time></trkpt>
      <trkpt lat="49.01440530" lon="8.43194799"><time>2011-09-26T13:02:47.945Z</time></trkpt>
      <trkpt lat="49.01440225" lon="8.43193483"><time>2011-09-26T13:02:48.045Z</time></trkpt>
      <trkpt lat="49.01439881" lon="8.43192029"><time>2011-09-26T13:02:48.155Z</time></trkpt>
      <trkpt lat="49.01439531" lon="8.43190568"><time>2011-09-26T13:02:48.265Z</time></trkpt>
      <trkpt lat="49.01439239" lon="8.43189366"><time>2011-09-26T13:02:48.355Z</time></trkpt>
      <trkpt lat="49.01438878" lon="8.43187888"><time>2011-09-26T13:02:48.465Z</time></trkpt>
      <trkpt lat="49.01438549" lon="8.43186534"><time>2011-09-26T13:02:48.565Z</time></trkpt>
      <trkpt lat="49.01438214" lon="8.43185173"><time>2011-09-26T13:02:48.665Z</time></trkpt>
      <trkpt lat="49.01437843" lon="8.43183670"><time>2011-09-26T13:02:48.775Z</time></trkpt>
      <trkpt lat="49.01437499" lon="8.43182296"><time>2011-09-26T13:02:48.875Z</time></trkpt>
      <trkpt lat="49.01437151" lon="8.43180915"><time>2011-09-26T13:02:48.975Z</time></trkpt>
      <trkpt lat="49.01436800" lon="8.43179527"><time>2011-09-26T13:02:49.075Z</time></trkpt>
      <trkpt lat="49.01436407" lon="8.43177992"><time>2011-09-26T13:02:49.185Z</time></trkpt>
      <trkpt lat="49.01436042" lon="8.43176592"><time>2011-09-26T13:02:49.285Z</time></trkpt>
      <trkpt lat="49.01435672" lon="8.43175188"><time>2011-09-26T13:02:49.385Z</time></trkpt>
      <trkpt lat="49.01435261" lon="8.43173640"><time>2011-09-26T13:02:49.495Z</time></trkpt>
      <trkpt lat="49.01434882" lon="8.43172228"><time>2011-09-26T13:02:49.595Z</time></trkpt>
      <trkpt lat="49.01434498" lon="8.43170810"><time>2011-09-26T13:02:49.695Z</time></trkpt>
      <trkpt lat="49.01434073" lon="8.43169248"><time>2011-09-26T13:02:49.805Z</time></trkpt>
      <trkpt lat="49.01433685" lon="8.43167823"><time>2011-09-26T13:02:49.905Z</time></trkpt>
      <trkpt lat="49.01433295" lon="8.43166396"><time>2011-09-26T13:02:50.005Z</time></trkpt>
      <trkpt lat="49.01432860" lon="8.43164820"><time>2011-09-26T13:02:50.115Z</time></trkpt>
      <trkpt lat="49.01432461" lon="8.43163381"><time>2011-09-26T13:02:50.215Z</time></trkpt>
      <trkpt lat="49.01432059" lon="8.43161932"><time>2011-09-26T13:02:50.315Z</time></trkpt>
      <trkpt lat="49.01431616" lon="8.43160331"><time>2011-09-26T13:02:50.425Z</time></trkpt>
      <trkpt lat="49.01431213" lon="8.43158866"><time>2011-09-26T13:02:50.525Z</time></trkpt>
      <trkpt lat="49.01430767" lon="8.43157245"><time>2011-09-26T13:02:50.635Z</time></trkpt>
      <trkpt lat="49.01430360" lon="8.43155762"><time>2011-09-26T13:02:50.735Z</time></trkpt>
      <trkpt lat="49.01429952" lon="8.43154270"><time>2011-09-26T13:02:50.835Z</time></trkpt>
      <trkpt lat="49.01429542" lon="8.43152772"><time>2011-09-26T13:02:50.935Z</time></trkpt>
      <trkpt lat="49.01429093" lon="8.43151113"><time>2011-09-26T13:02:51.045Z</time></trkpt>
      <trkpt lat="49.01428686" lon="8.43149596"><time>2011-09-26T13:02:51.145Z</time></trkpt>
      <trkpt lat="49.01428280" lon="8.43148071"><time>2011-09-26T13:02:51.245Z</time></trkpt>
      <trkpt lat="49.01427871" lon="8.43146537"><time>2011-09-26T13:02:51.345Z</time></trkpt>
      <trkpt lat="49.01427415" lon="8.43144838"><time>2011-09-26T13:02:51.455Z</time></trkpt>
      <trkpt lat="49.01427001" lon="8.43143286"><time>2011-09-26T13:02:51.555Z</time></trkpt>
      <trkpt lat="49.01426585" lon="8.43141730"><time>2011-09-26T13:02:51.655Z</time></trkpt>
      <trkpt lat="49.01426132" lon="8.43140006"><time>2011-09-26T13:02:51.765Z</time></trkpt>
      <trkpt lat="49.01425717" lon="8.43138429"><time>2011-09-26T13:02:51.865Z</time></trkpt>
      <trkpt lat="49.01425300" lon="8.43136844"><time>2011-09-26T13:02:51.965Z</time></trkpt>
      <trkpt lat="49.01424836" lon="8.43135095"><time>2011-09-26T13:02:52.075Z</time></trkpt>
      <trkpt lat="49.01424412" lon="8.43133501"><time>2011-09-26T13:02:52.175Z</time></trkpt>
    </trkseg>
  </trk>
</gpx>
